start=new Date('2022-08-27T00:00:00.000Z').valueOf();
sats=[{"CLASSIFICATION_TYPE":"U","EPOCH":"2022-08-26T22:00:00.999936","MEAN_MOTION":"15.84344473","REF_FRAME":"TEME","ECCENTRICITY":"0.00160020","OBJECT_TYPE":"PAYLOAD","CENTER_NAME":"EARTH","APOAPSIS":"328.889","MEAN_ELEMENT_THEORY":"SGP4","SITE":"AFETR","FILE":"3548620","DECAY_DATE":null,"MEAN_ANOMALY":"70.4072","PERIOD":"90.889","ELEMENT_SET_NO":"999","TIME_SYSTEM":"UTC","NORAD_CAT_ID":"53579","INCLINATION":"53.2172","OBJECT_NAME":"STARLINK-4580","MEAN_MOTION_DOT":"-0.01158516","SEMIMAJOR_AXIS":"6696.308","TLE_LINE2":"2 53579  53.2172 119.5969 0016002  55.7087  70.4072 15.84344473  1309","MEAN_MOTION_DDOT":"0.0000000000000","RA_OF_ASC_NODE":"119.5969","EPHEMERIS_TYPE":"0","GP_ID":"211081257","RCS_SIZE":null,"PERIAPSIS":"307.458","OBJECT_ID":"2022-101BE","REV_AT_EPOCH":"130","ARG_OF_PERICENTER":"55.7087","COUNTRY_CODE":"US","TLE_LINE1":"1 53579U 22101BE  22238.91667824 -.01158516  00000-0 -55959-2 0  9999","BSTAR":"-0.00559590000000","LAUNCH_DATE":"2022-08-19"}];
